NORAD_CAT_ID,OBJECT_NAME,OBJECT_TYPE,EPOCH,MEAN_MOTION,ECCENTRICITY,INCLINATION,RA_OF_ASC_NODE,ARG_OF_PERICENTER,MEAN_ANOMALY,BSTAR,MEAN_MOTION_DOT,MEAN_MOTION_DDOT,TLE_LINE0,TLE_LINE1,TLE_LINE2,SEMIMAJOR_AXIS,PERIOD,APOGEE,PERIGEE,DECAYED
53840.0,STARLINK-4766,PAYLOAD,2023-03-25 04:47:38,15.08830538,0.0001023,53.2176,104.6824,72.9914,287.119,-0.00015861,-2.81e-05,0.0,0 STARLINK-4766,1 53840U 22114Y   23084.19974648 -.00002810  00000-0 -15861-3 0  9992,2 53840  53.2176 104.6824 0001023  72.9914 287.1190 15.08830538 29313,6917.909,95.438,540.482,539.067,0.0
53840.0,STARLINK-4766,PAYLOAD,2023-03-25 11:09:11,15.08828836,9.76e-05,53.2171,103.4905,102.097,258.0132,-9.9384e-05,-1.869e-05,0.0,0 STARLINK-4766,1 53840U 22114Y   23084.46471281 -.00001869  00000-0 -99384-4 0  9993,2 53840  53.2171 103.4905 0000976 102.0970 258.0132 15.08828836 29892,6917.915,95.438,540.455,539.104,0.0
53840.0,STARLINK-4766,PAYLOAD,2023-03-26 04:38:25,15.0883636,7.87e-05,53.2182,100.2198,103.9307,256.1773,9.0687e-05,1.156e-05,0.0,0 STARLINK-4766,1 53840U 22114Y   23085.19334586  .00001156  00000-0  90687-4 0  9994,2 53840  53.2182 100.2198 0000787 103.9307 256.1773 15.08836360 29461,6917.892,95.438,540.301,539.212,0.0
53840.0,STARLINK-4766,PAYLOAD,2023-03-26 07:49:10,15.08846547,9.1e-05,53.2183,99.6247,111.7508,248.3581,3.2525e-05,2.3e-06,0.0,0 STARLINK-4766,1 53840U 22114Y   23085.32582115  .00000230  00000-0  32525-4 0  9991,2 53840  53.2183  99.6247 0000910 111.7508 248.3581 15.08846547 29486,6917.86,95.437,540.355,539.096,0.0
53840.0,STARLINK-4766,PAYLOAD,2023-03-26 17:21:29,15.08847222,9.3e-05,53.218,97.8408,119.2557,240.8528,-2.3626e-05,-6.64e-06,0.0,0 STARLINK-4766,1 53840U 22114Y   23085.72326119 -.00000664  00000-0 -23626-4 0  9990,2 53840  53.2180  97.8408 0000930 119.2557 240.8528 15.08847222 30088,6917.858,95.437,540.367,539.08,0.0
53840.0,STARLINK-4766,PAYLOAD,2023-03-27 04:29:12,15.08833685,8.95e-05,53.2185,95.7595,121.3441,238.7638,0.00023478,3.45e-05,0.0,0 STARLINK-4766,1 53840U 22114Y   23086.18694995  .00003450  00000-0  23478-3 0  9999,2 53840  53.2185  95.7595 0000895 121.3441 238.7638 15.08833685 29616,6917.9,95.438,540.384,539.146,0.0
53840.0,STARLINK-4766,PAYLOAD,2023-03-27 07:39:58,15.08840899,9.42e-05,53.2178,95.1647,118.6116,241.4971,0.00028371,4.23e-05,0.0,0 STARLINK-4766,1 53840U 22114Y   23086.31942855  .00004230  00000-0  28371-3 0  9999,2 53840  53.2178  95.1647 0000942 118.6116 241.4971 15.08840899 30170,6917.878,95.437,540.394,539.091,0.0
53840.0,STARLINK-4766,PAYLOAD,2023-03-27 17:12:17,15.08843827,9.38e-05,53.2179,93.3817,115.8848,244.2241,0.00021107,3.073e-05,0.0,0 STARLINK-4766,1 53840U 22114Y   23086.71686699  .00003073  00000-0  21107-3 0  9998,2 53840  53.2179  93.3817 0000938 115.8848 244.2241 15.08843827 30238,6917.869,95.437,540.383,539.085,0.0
53840.0,STARLINK-4766,PAYLOAD,2023-03-28 05:55:22,15.08839112,0.000111,53.2183,91.004,119.7252,240.3851,-2.9648e-05,-7.6e-06,0.0,0 STARLINK-4766,1 53840U 22114Y   23087.24678898 -.00000760  00000-0 -29648-4 0  9990,2 53840  53.2183  91.0040 0001110 119.7252 240.3851 15.08839112 29774,6917.883,95.438,540.516,538.98,0.0
53840.0,STARLINK-4766,PAYLOAD,2023-03-28 17:03:04,15.0884492,0.000109,53.2198,88.9248,114.9958,245.1147,5.231e-05,5.45e-06,0.0,0 STARLINK-4766,1 53840U 22114Y   23087.71046965  .00000545  00000-0  52310-4 0  9997,2 53840  53.2198  88.9248 0001090 114.9958 245.1147 15.08844920 30385,6917.865,95.437,540.484,538.976,0.0
53840.0,STARLINK-4766,PAYLOAD,2023-03-29 07:21:32,15.08846007,0.0001076,53.2187,86.2444,108.1558,251.9551,9.9927e-05,1.303e-05,0.0,0 STARLINK-4766,1 53840U 22114Y   23088.30662590  .00001303  00000-0  99927-4 0  9999,2 53840  53.2187  86.2444 0001076 108.1558 251.9551 15.08846007 29938,6917.862,95.437,540.471,538.983,0.0
53840.0,STARLINK-4766,PAYLOAD,2023-03-29 16:53:51,15.08840822,0.0001017,53.2182,84.4621,89.3125,270.7983,5.872e-05,6.47e-06,0.0,0 STARLINK-4766,1 53840U 22114Y   23088.70406931  .00000647  00000-0  58720-4 0  9994,2 53840  53.2182  84.4621 0001017  89.3125 270.7983 15.08840822 30530,6917.878,95.438,540.446,539.039,0.0
53840.0,STARLINK-4766,PAYLOAD,2023-03-30 05:36:57,15.0883781,0.0001177,53.2186,82.0829,85.5671,274.5455,8.8101e-05,1.114e-05,0.0,0 STARLINK-4766,1 53840U 22114Y   23089.23399334  .00001114  00000-0  88101-4 0  9997,2 53840  53.2186  82.0829 0001177  85.5671 274.5455 15.08837810 30077,6917.887,95.438,540.566,538.938,0.0
53840.0,STARLINK-4766,PAYLOAD,2023-03-30 08:47:43,15.08840847,9.25e-05,53.217,81.4871,83.3387,276.771,9.9972e-05,1.304e-05,0.0,0 STARLINK-4766,1 53840U 22114Y   23089.36647164  .00001304  00000-0  99972-4 0  9997,2 53840  53.2170  81.4871 0000925  83.3387 276.7710 15.08840847 30634,6917.878,95.438,540.383,539.103,0.0
53840.0,STARLINK-4766,PAYLOAD,2023-03-31 16:35:26,15.08838004,8.43e-05,53.2182,75.5406,72.1722,287.9362,7.5827e-05,9.19e-06,0.0,0 STARLINK-4766,1 53840U 22114Y   23090.69127387  .00000919  00000-0  75827-4 0  9999,2 53840  53.2182  75.5406 0000843  72.1722 287.9362 15.08838004 30294,6917.886,95.438,540.335,539.168,0.0
53840.0,STARLINK-4766,PAYLOAD,2023-04-01 05:18:32,15.08821611,6.53e-05,53.2168,73.1614,83.0286,277.078,-8.797e-05,-1.687e-05,0.0,0 STARLINK-4766,1 53840U 22114Y   23091.22120602 -.00001687  00000-0 -87970-4 0  9999,2 53840  53.2168  73.1614 0000653  83.0286 277.0780 15.08821611 30377,6917.937,95.439,540.253,539.35,0.0
53840.0,STARLINK-4766,PAYLOAD,2023-04-01 08:29:18,15.08829989,0.0001075,53.2175,72.5644,101.2469,258.8644,-3.7601e-05,-8.86e-06,0.0,0 STARLINK-4766,1 53840U 22114Y   23091.35368229 -.00000886  00000-0 -37601-4 0  9998,2 53840  53.2175  72.5644 0001075 101.2469 258.8644 15.08829989 30390,6917.911,95.438,540.52,539.032,0.0
53840.0,STARLINK-4766,PAYLOAD,2023-04-02 06:44:41,15.08860927,9.35e-05,53.2174,68.4042,100.2551,259.8546,0.00048391,7.426e-05,0.0,0 STARLINK-4766,1 53840U 22114Y   23092.28103060  .00007426  00000-0  48391-3 0  9993,2 53840  53.2174  68.4042 0000935 100.2551 259.8546 15.08860927 30535,6917.816,95.436,540.328,539.035,0.0
53840.0,STARLINK-4766,PAYLOAD,2023-04-02 08:20:04,15.08861815,0.00011,53.2177,68.1047,104.1772,255.9343,0.00052691,8.113e-05,0.0,0 STARLINK-4766,1 53840U 22114Y   23092.34726968  .00008113  00000-0  52691-3 0  9990,2 53840  53.2177  68.1047 0001100 104.1772 255.9343 15.08861815 31083,6917.814,95.436,540.44,538.918,0.0
53840.0,STARLINK-4766,PAYLOAD,2023-04-02 22:38:32,15.08841987,7.52e-05,53.2168,65.4284,89.2133,270.8945,0.00019126,2.758e-05,0.0,0 STARLINK-4766,1 53840U 22114Y   23092.94343709  .00002758  00000-0  19126-3 0  9999,2 53840  53.2168  65.4284 0000752  89.2133 270.8945 15.08841987 31174,6917.874,95.437,540.26,539.219,0.0
53840.0,STARLINK-4766,PAYLOAD,2023-04-03 05:00:05,15.08847687,9.22e-05,53.2167,64.2386,93.6783,266.4315,0.00015649,2.204e-05,0.0,0 STARLINK-4766,1 53840U 22114Y   23093.20839431  .00002204  00000-0  15649-3 0  9993,2 53840  53.2167  64.2386 0000922  93.6783 266.4315 15.08847687 30671,6917.857,95.437,540.36,539.084,0.0
53840.0,STARLINK-4766,PAYLOAD,2023-04-03 08:10:51,15.08851129,9.71e-05,53.2177,63.6446,93.9927,266.1177,0.0002206,3.226e-05,0.0,0 STARLINK-4766,1 53840U 22114Y   23093.34087343  .00003226  00000-0  22060-3 0  9995,2 53840  53.2177  63.6446 0000971  93.9927 266.1177 15.08851129 31231,6917.846,95.437,540.383,539.04,0.0
53840.0,STARLINK-4766,PAYLOAD,2023-04-04 06:26:15,15.08848307,0.000109,53.2169,59.4819,91.701,268.4107,0.0002728,4.057e-05,0.0,0 STARLINK-4766,1 53840U 22114Y   23094.26823283  .00004057  00000-0  27280-3 0  9990,2 53840  53.2169  59.4819 0001090  91.7010 268.4107 15.08848307 30838,6917.855,95.437,540.474,538.966,0.0
53840.0,STARLINK-4766,PAYLOAD,2023-04-04 08:01:38,15.08850089,0.0001065,53.2169,59.1844,90.7984,269.3131,0.00034039,5.135e-05,0.0,0 STARLINK-4766,1 53840U 22114Y   23094.33447256  .00005135  00000-0  34039-3 0  9998,2 53840  53.2169  59.1844 0001065  90.7984 269.3131 15.08850089 31382,6917.85,95.437,540.451,538.978,0.0
53840.0,STARLINK-4766,PAYLOAD,2023-04-04 22:20:07,15.08839166,0.0001247,53.2177,56.5074,88.6236,271.4899,0.00014318,1.992e-05,0.0,0 STARLINK-4766,1 53840U 22114Y   23094.93063721  .00001992  00000-0  14318-3 0  9990,2 53840  53.2177  56.5074 0001247  88.6236 271.4899 15.08839166 31473,6917.883,95.438,540.611,538.885,0.0
53840.0,STARLINK-4766,PAYLOAD,2023-04-05 04:41:39,15.08842866,0.0001167,53.2178,55.3181,87.4155,272.6971,0.00018564,2.668e-05,0.0,0 STARLINK-4766,1 53840U 22114Y   23095.19559644  .00002668  00000-0  18564-3 0  9991,2 53840  53.2178  55.3181 0001167  87.4155 272.6971 15.08842866 30977,6917.872,95.437,540.544,538.929,0.0
53840.0,STARLINK-4766,PAYLOAD,2023-04-05 06:17:02,15.08842657,0.0001174,53.2179,55.0207,88.0376,272.075,0.00017924,2.566e-05,0.0,0 STARLINK-4766,1 53840U 22114Y   23095.26183651  .00002566  00000-0  17924-3 0  9996,2 53840  53.2179  55.0207 0001174  88.0376 272.0750 15.08842657 31523,6917.872,95.437,540.549,538.925,0.0
53840.0,STARLINK-4766,PAYLOAD,2023-04-06 07:43:13,15.08833724,0.0001268,53.2178,50.2636,83.7133,276.4003,6.1806e-05,6.96e-06,0.0,0 STARLINK-4766,1 53840U 22114Y   23096.32168784  .00000696  00000-0  61806-4 0  9995,2 53840  53.2178  50.2636 0001268  83.7133 276.4003 15.08833724 31144,6917.9,95.438,540.642,538.887,0.0
53840.0,STARLINK-4766,PAYLOAD,2023-04-07 05:58:37,15.08863054,0.0001214,53.2176,46.1001,91.5455,268.5676,0.00089839,0.00014048,0.0,0 STARLINK-4766,1 53840U 22114Y   23097.24904260  .00014048  00000-0  89839-3 0  9995,2 53840  53.2176  46.1001 0001214  91.5455 268.5676 15.08863054 31289,6917.81,95.436,540.515,538.835,0.0
53840.0,STARLINK-4766,PAYLOAD,2023-04-08 05:49:24,15.08855524,0.0001306,53.2179,41.64,81.8017,278.3123,0.00055138,8.502e-05,0.0,0 STARLINK-4766,1 53840U 22114Y   23098.24264095  .00008502  00000-0  55138-3 0  9994,2 53840  53.2179  41.6400 0001306  81.8017 278.3123 15.08855524 31439,6917.833,95.437,540.601,538.794,0.0
